BEIDOU 3 (C01)          
1 36287U 10001A   22207.74334576 -.00000279  00000+0  00000+0 0  9997
2 36287   1.9481  49.3293 0003895  34.9947 268.1418  1.00271846 45909
BEIDOU 5 (C06)          
1 36828U 10036A   22207.85118748 -.00000104  00000+0  00000+0 0  9996
2 36828  54.2007 175.8666 0030798 190.8589 351.1017  1.00287616 43975
BEIDOU 6 (C04)          
1 37210U 10057A   22207.71318980 -.00000112  00000+0  00000+0 0  9999
2 37210   0.9193  51.7557 0005003 129.2827 179.9808  1.00270157 43031
BEIDOU 7 (C07)          
1 37256U 10068A   22207.75883694 -.00000177  00000+0  00000+0 0  9995
2 37256  50.1422 289.1801 0023141 198.9365 195.4317  1.00294840 42543
BEIDOU 8 (C08)          
1 37384U 11013A   22207.86908667 -.00000159  00000+0  00000+0 0  9998
2 37384  60.3497  53.8650 0022585 177.3174 131.7448  1.00296632 41412
BEIDOU 9 (C09)          
1 37763U 11038A   22207.87653936 -.00000058  00000+0  00000+0 0  9991
2 37763  54.4831 178.3622 0099265 228.3843 309.0971  1.00272499 40392
BEIDOU 10 (C10)         
1 37948U 11073A   22207.77121065 -.00000133  00000+0  00000+0 0  9991
2 37948  50.2587 288.8216 0084832 218.1660 170.3527  1.00285523 39153
BEIDOU 11 (C05)         
1 38091U 12008A   22207.80327391  .00000057  00000+0  00000+0 0  9998
2 38091   1.6482  68.5326 0014088 341.1997 242.6071  1.00275821 38222
BEIDOU 12 (C11)         
1 38250U 12018A   22207.34588618 -.00000107  00000+0  00000+0 0  9993
2 38250  56.6838 352.2750 0020617 250.4499 115.8671  1.86234273 69818
BEIDOU 13 (C12)         
1 38251U 12018B   22207.81921249 -.00000106  00000+0  00000+0 0  9996
2 38251  56.6003 351.5818 0011361 250.7672 117.0929  1.86234109 69821
BEIDOU 15 (C14)         
1 38775U 12050B   22207.38452640 -.00000053  00000+0  00000+0 0  9990
2 38775  55.4218 110.3749 0014106 327.8244 304.7146  1.86231392 67186
BEIDOU 16 (C02)         
1 38953U 12059A   22207.85743720 -.00000176  00000+0  00000+0 0  9997
2 38953   2.0838  84.2537 0010466 304.8516 308.0790  1.00275703 35655
BEIDOU 17 (C31)         
1 40549U 15019A   22207.82593606 -.00000176  00000+0  00000+0 0  9993
2 40549  51.8202 312.3000 0037361 194.2209 189.7140  1.00289005 26832
BEIDOU 18 (C57)         
1 40748U 15037A   22207.41391869 -.00000109  00000+0  00000+0 0  9992
2 40748  55.8535 350.4374 0003916  53.7232 311.7737  1.86233288 47644
BEIDOU 19 (C58)         
1 40749U 15037B   22207.57371826 -.00000108  00000+0  00000+0 0  9990
2 40749  55.8552 350.4224 0002645 354.4230 252.5652  1.86232110 47635
BEIDOU 20 (C18)         
1 40938U 15053A   22207.44316850 -.00000099  00000+0  00000+0 0  9999
2 40938  51.4377 275.4263 0046218 197.9115  86.2162  1.00284611 25090
BEIDOU IGSO-6 (C13)     
1 41434U 16021A   22207.50937765 -.00000143  00000+0  00000+0 0  9998
2 41434  58.1559  52.4287 0043763 216.0613 315.2826  1.00275431 23220
BEIDOU-2 G7 (C03)       
1 41586U 16037A   22207.82297594 -.00000353  00000+0  00000+0 0  9990
2 41586   1.4582  66.5384 0008209   0.0208 284.7559  1.00271104 22535
BEIDOU-3 M1 (C19)       
1 43001U 17069A   22207.48926447 -.00000052  00000+0  00000+0 0  9994
2 43001  55.5742 110.3773 0010439 298.1054 200.9588  1.86231729 32125
BEIDOU-3 M2 (C20)       
1 43002U 17069B   22207.42267124 -.00000052  00000+0  00000+0 0  9999
2 43002  55.5738 110.4148 0008979 319.7184 177.6697  1.86231295 32116
BEIDOU-3 M3 (C27)       
1 43107U 18003A   22207.54865243 -.00000109  00000+0  00000+0 0  9996
2 43107  55.3035 351.3333 0005250  66.7927 321.2413  1.86232479 30885
BEIDOU-3 M4 (C28)       
1 43108U 18003B   22207.52684707 -.00000109  00000+0  00000+0 0  9999
2 43108  55.2966 351.3227 0002047 233.0744 184.0144  1.86230934 30887
BEIDOU-3 M5 (C21)       
1 43207U 18018A   22207.34962184 -.00000053  00000+0  00000+0 0  9991
2 43207  55.5339 110.4949 0006581 341.9267  18.0748  1.86231648 30266
BEIDOU-3 M6 (C22)       
1 43208U 18018B   22207.41628777 -.00000053  00000+0  00000+0 0  9997
2 43208  55.5333 110.4979 0008521 309.5995  50.3517  1.86231486 30261
BEIDOU-3 M7 (C29)       
1 43245U 18029A   22207.68652568 -.00000108  00000+0  00000+0 0  9995
2 43245  55.2156 349.0947 0001103 110.9572 279.9650  1.86232633 29429
BEIDOU-3 M8 (C30)       
1 43246U 18029B   22207.07729206 -.00000111  00000+0  10000-3 0  9992
2 43246  55.2135 349.1454 0003681  15.8101  13.2123  1.86232875 29405
BEIDOU IGSO-7 (C16)     
1 43539U 18057A   22207.85118748 -.00000110  00000+0  00000+0 0  9991
2 43539  55.0926 175.3834 0052911 229.2169 317.2956  1.00298490 14903
BEIDOU-3 M9 (C23)       
1 43581U 18062A   22207.52896420  .00000080  00000+0  00000+0 0  9993
2 43581  54.2665 230.7475 0005648 268.1451 274.8298  1.86231906 27150
BEIDOU-3 M10 (C24)      
1 43582U 18062B   22207.75899251  .00000079  00000+0  00000+0 0  9992
2 43582  54.2663 230.7282 0004550 334.3965  94.6137  1.86232352 27169
BEIDOU-3 M11 (C25)      
1 43602U 18067A   22207.69397988  .00000080  00000+0  00000+0 0  9995
2 43602  54.3483 229.3489 0006577   0.5102  66.2603  1.86231628 26653
BEIDOU-3 M12 (C26)      
1 43603U 18067B   22207.82668322  .00000079  00000+0  00000+0 0  9992
2 43603  54.3453 229.3105 0003937 342.1516  83.9573  1.86231587 26675
BEIDOU-3 M13 (C32)      
1 43622U 18072A   22207.35627020 -.00000053  00000+0  00000+0 0  9990
2 43622  55.5007 110.0477 0006978 296.3943 203.4961  1.86231809 26176
BEIDOU-3 M14 (C33)      
1 43623U 18072B   22207.76143363 -.00000049  00000+0  00000+0 0  9994
2 43623  55.5029 110.0262 0005441 320.8463 180.9286  1.86231834 26185
BEIDOU-3 M15 (C34)      
1 43647U 18078A   22207.21166209 -.00000111  00000+0  10000-3 0  9995
2 43647  55.1107 349.2665 0006064  16.8849  11.8773  1.86232769 25684
BEIDOU-3 M16 (C35)      
1 43648U 18078B   22207.34486887 -.00000110  00000+0  00000+0 0  9991
2 43648  55.1068 349.2676 0004284  33.2496 352.5387  1.86232242 25701
BEIDOU-3 G1 (C59)       
1 43683U 18085A   22207.80744083 -.00000277  00000+0  00000+0 0  9998
2 43683   0.9296 159.6180 0004409  12.2659 203.2795  1.00268943 13807
BEIDOU-3 M17 (C36)      
1 43706U 18093A   22207.45749735  .00000081  00000+0  00000+0 0  9995
2 43706  54.3488 230.6367 0011234 271.9458  87.9919  1.86232139 25069
BEIDOU-3 M18 (C37)      
1 43707U 18093B   22207.45857237  .00000081  00000+0  00000+0 0  9993
2 43707  54.3488 230.6278 0009013 293.3298 158.5752  1.86232193 25052
BEIDOU-3 IGSO-1 (C38)   
1 44204U 19023A   22207.42132472 -.00000202  00000+0  00000+0 0  9990
2 44204  56.6138  52.5509 0022389 188.6563 331.4612  1.00298146 12107
BEIDOU-2 G8             
1 44231U 19027A   22207.78174479 -.00000246  00000+0  00000+0 0  9994
2 44231   0.9544  77.7375 0005313 109.5243 183.1523  1.00272093 11829
BEIDOU-3 IGSO-2 (C39)   
1 44337U 19035A   22207.49335693 -.00000120  00000+0  00000+0 0  9996
2 44337  55.1279 171.3776 0025932 194.6102 233.4908  1.00292924 11446
BEIDOU-3 M23 (C45)      
1 44542U 19061A   22207.39354818  .00000082  00000+0  00000+0 0  9998
2 44542  54.5752 230.7885 0008418 323.9437  36.0666  1.86231457 19312
BEIDOU-3 M24 (C46)      
1 44543U 19061B   22207.80188381  .00000079  00000+0  00000+0 0  9991
2 44543  54.5724 230.7445 0005988 307.4812 237.6583  1.86231703 19318
BEIDOU-3 IGSO-3         
1 44709U 19073A   22207.94423421 -.00000177  00000+0  10000-3 0  9995
2 44709  57.2019 295.9759 0027343 178.0653 287.9356  1.00296521 10192
BEIDOU-3 M21            
1 44793U 19078A   22207.27729933 -.00000110  00000+0  10000-3 0  9993
2 44793  54.9603 349.2816 0006097  23.8842   2.7137  1.86232250 18174
BEIDOU-3 M22            
1 44794U 19078B   22207.41480465 -.00000110  00000+0  00000+0 0  9999
2 44794  54.9323 349.2671 0003879  25.1647   5.3566  1.86232695 18174
BEIDOU-3 M19            
1 44864U 19090A   22207.84335097 -.00000048  00000+0  00000+0 0  9998
2 44864  55.4353 110.2406 0017065 274.0986 238.1838  1.86231967 17769
BEIDOU-3 M20            
1 44865U 19090B   22207.69296659 -.00000049  00000+0  00000+0 0  9993
2 44865  55.4370 110.2774 0015589 288.2928 213.0239  1.86231885 17732
BEIDOU-3 G2             
1 45344U 20017A   22207.85743720 -.00000136  00000+0  00000+0 0  9998
2 45344   2.0420 353.9940 0004815 128.0648 211.1871  1.00273032  9008
BEIDOU-3 G3             
1 45807U 20040A   22207.83452194 -.00000349  00000+0  00000+0 0  9994
2 45807   1.3538 304.2849 0006987 328.1905  82.9543  1.00267936  7826
